     3.04           N: GNSS NAV DATA    M: MIXED            RINEX VERSION / TYPE
ssrcrin-15.6.1x                         20250101 143000 UTC PGM / RUN BY / DATE 
    18                                                      LEAP SECONDS        
                                                            END OF HEADER       
C43 2025 01 01 14 00 00 9.704241529107E-05 1.051603248925E-12 0.000000000000E+00
     1.000000000000E+00 1.852343750000E+02 3.713011804702E-09-1.047223623810E+00
     9.011011570692E-06 5.111249629408E-04 9.697396308184E-06 5.282668939590E+03
     3.096000000000E+05 2.933666110039E-08-2.434974502759E+00 9.313225746155E-10
     9.493175885109E-01 1.590156250000E+02 4.940924737805E-01-6.737066340141E-09
    -5.035924052165E-11 0.000000000000E+00 9.910000000000E+02 0.000000000000E+00
     2.000000000000E+00 0.000000000000E+00-3.200000000000E-09-3.200000000000E-09
     3.113880000000E+05 1.000000000000E+00
S36 2025 01 01 14 30 08 0.000000000000E+00 0.000000000000E+00 3.114090000000E+05
     4.200368800000E+04 0.000000000000E+00 0.000000000000E+00 6.300000000000E+01
     3.674846960000E+03 0.000000000000E+00 0.000000000000E+00 3.276700000000E+04
     0.000000000000E+00 0.000000000000E+00 0.000000000000E+00 2.380000000000E+02
S23 2025 01 01 14 29 04 0.000000000000E+00 0.000000000000E+00 3.114120000000E+05
     3.866796400000E+04 0.000000000000E+00 0.000000000000E+00 6.300000000000E+01
     1.681330800000E+04 0.000000000000E+00 0.000000000000E+00 3.276700000000E+04
     0.000000000000E+00 0.000000000000E+00 0.000000000000E+00 1.450000000000E+02
R14 2025 01 01 14 45 00 2.751126885414E-05 0.000000000000E+00 3.114000000000E+05
     1.405852343750E+04 1.070932388306E+00-1.862645149231E-09 0.000000000000E+00
     9.655780273438E+03 2.365116119385E+00-9.313225746155E-10-7.000000000000E+00
     1.896448339844E+04-2.000102043152E+00-1.862645149231E-09 0.000000000000E+00
R24 2025 01 01 14 45 00-8.642021566629E-05-9.094947017729E-13 3.114000000000E+05
     1.602507519531E+04-2.270374298096E+00-9.313225746155E-10 0.000000000000E+00
     1.042622021484E+04-4.471006393433E-01-9.313225746155E-10 2.000000000000E+00
     1.691767236328E+04 2.427991867065E+00-1.862645149231E-09 0.000000000000E+00
R15 2025 01 01 14 45 00 7.260404527187E-05-0.000000000000E+00 3.114000000000E+05
     8.356663574219E+03 1.143588066101E+00-9.313225746155E-10 0.000000000000E+00
    -8.368795410156E+03 2.872960090637E+00 9.313225746155E-10 0.000000000000E+00
     2.261194970703E+04 6.404047012329E-01-2.793967723846E-09 0.000000000000E+00
R23 2025 01 01 14 45 00-1.428863033652E-04-9.094947017729E-13 3.114000000000E+05
    -4.506265625000E+03-3.128140449524E+00-4.656612873077E-09 0.000000000000E+00
     9.815597656250E+03-5.042181015015E-01 9.313225746155E-10 3.000000000000E+00
     2.310785937500E+04-3.953533172607E-01-0.000000000000E+00 0.000000000000E+00
R17 2025 01 01 14 45 00 1.536477357149E-04 3.637978807092E-12 3.114000000000E+05
     2.521370703125E+04-3.603458404541E-02 2.793967723846E-09 0.000000000000E+00
     3.969880371094E+03-2.199020385742E-01-2.793967723846E-09 4.000000000000E+00
     5.106005859375E+02 3.588190078735E+00-2.793967723846E-09 0.000000000000E+00
R13 2025 01 01 14 45 00-5.501229315996E-05-0.000000000000E+00 3.114000000000E+05
     1.082664550781E+04 2.484397888184E-01-9.313225746155E-10 0.000000000000E+00
     2.300027490234E+04 2.155551910400E-01-1.862645149231E-09-2.000000000000E+00
     2.135078125000E+03-3.545839309692E+00 0.000000000000E+00 0.000000000000E+00
R05 2025 01 01 14 45 00 1.430884003639E-04 0.000000000000E+00 3.114000000000E+05
     1.106689404297E+04 6.905202865601E-01 2.793967723846E-09 0.000000000000E+00
    -2.081089501953E+04-1.154634475708E+00 0.000000000000E+00 1.000000000000E+00
     9.727973632812E+03-3.262134552002E+00-2.793967723846E-09 0.000000000000E+00
R06 2025 01 01 14 45 00-1.955088227987E-04-9.094947017729E-13 3.114000000000E+05
    -5.540993164062E+03 1.803172111511E+00-1.862645149231E-09 0.000000000000E+00
    -1.047418701172E+04-2.515242576599E+00 1.862645149231E-09-4.000000000000E+00
     2.257608300781E+04-7.259988784790E-01-9.313225746155E-10 0.000000000000E+00
S44 2025 01 01 14 30 24 8.409842848778E-07 0.000000000000E+00 3.114320000000E+05
     7.286132240000E+03 4.915625000000E-03 0.000000000000E+00 6.300000000000E+01
     4.154170016000E+04-2.625000000000E-04-2.625000000000E-07 3.276700000000E+04
     9.449280000000E+01 1.402240000000E-01-1.875000000000E-07 6.000000000000E+01
S21 2025 01 01 14 30 56 0.000000000000E+00 0.000000000000E+00 3.114560000000E+05
     4.200468400000E+04 0.000000000000E+00 0.000000000000E+00 6.300000000000E+01
    -3.674932960000E+03 0.000000000000E+00 0.000000000000E+00 3.276700000000E+04
     0.000000000000E+00 0.000000000000E+00 0.000000000000E+00 1.670000000000E+02
E27 2025 01 01 14 20 00-5.449262680486E-04-9.919176591211E-12 0.000000000000E+00
     1.000000000000E+01-1.615625000000E+01 3.528361256123E-09 5.106197132464E-01
    -6.482005119324E-07 3.207088448107E-04 6.368383765221E-06 5.440602401733E+03
     3.108000000000E+05 6.332993507385E-08 2.413556040583E+00 4.284083843231E-08
     9.642060100906E-01 2.039375000000E+02 5.530927206347E-01-5.548445400736E-09
    -6.118111986779E-10 5.170000000000E+02 2.347000000000E+03
     3.120000000000E+00 0.000000000000E+00-4.656612873077E-10 4.656612873077E-10
     3.114650000000E+05
E29 2025 01 01 14 20 00-5.848403088748E-05-3.183231456205E-12 0.000000000000E+00
     1.000000000000E+01-1.826250000000E+02 2.820117469212E-09-2.884962388321E-01
    -8.318573236465E-06 3.140298649669E-04 1.212395727634E-05 5.440617538452E+03
     3.108000000000E+05 0.000000000000E+00 3.156896023105E-01 2.793967723846E-08
     9.569350175788E-01 7.781250000000E+01 2.648020138931E+00-5.280577100089E-09
     3.432285825624E-10 5.170000000000E+02 2.347000000000E+03
     3.120000000000E+00 0.000000000000E+00-5.355104804039E-09-4.190951585770E-09
     3.114650000000E+05
E36 2025 01 01 14 20 00-3.330285544507E-04-5.272227099340E-12 0.000000000000E+00
     1.000000000000E+01 1.604687500000E+02 2.501532770309E-09 2.337091417718E+00
     7.564201951027E-06 3.676651977003E-04 1.156702637672E-06 5.440612834930E+03
     3.108000000000E+05-1.676380634308E-08-1.775904230911E+00-2.235174179077E-08
     9.996860086606E-01 3.360937500000E+02-1.004813810094E+00-5.597733168055E-09
     2.550106222160E-10 5.170000000000E+02 2.347000000000E+03
     3.120000000000E+00 0.000000000000E+00 2.095475792885E-09 3.725290298462E-09
     3.114650000000E+05
E15 2025 01 01 14 20 00-1.484779641032E-04-2.302158463863E-12 0.000000000000E+00
     1.000000000000E+01 1.796250000000E+02 2.558678007781E-09 9.471089069790E-01
     8.396804332733E-06 4.395424621180E-04 3.203749656677E-07 5.440608373642E+03
     3.108000000000E+05 1.098960638046E-07-1.775976425918E+00-5.587935447693E-09
     9.996378640266E-01 3.523125000000E+02-1.180915302228E+00-5.664164506616E-09
     3.510860527148E-10 5.170000000000E+02 2.347000000000E+03
     3.120000000000E+00 0.000000000000E+00 2.561137080193E-09 3.725290298462E-09
     3.114650000000E+05
E19 2025 01 01 14 20 00 1.170678413473E-03 5.610445441562E-11 0.000000000000E+00
     1.000000000000E+01-1.815312500000E+02 2.594393781200E-09-2.496716885686E+00
    -8.380040526390E-06 1.477025216445E-04 1.179985702038E-05 5.440636203766E+03
     3.108000000000E+05 1.117587089539E-08 3.191152210241E-01 1.676380634308E-08
     9.691164891917E-01 8.871875000000E+01-2.123952361061E+00-5.181287249983E-09
     3.360854278785E-10 5.170000000000E+02 2.347000000000E+03
     3.120000000000E+00 0.000000000000E+00-6.752088665962E-09-6.053596735001E-09
     3.114650000000E+05
S27 2025 01 01 14 31 28 5.140900611877E-07 1.818989403546E-11 3.114640000000E+05
     2.408225368000E+04 2.375625000000E-03 3.375000000000E-07 3.100000000000E+01
     3.461685744000E+04 1.765625000000E-03-2.625000000000E-07 4.096000000000E+03
    -5.367204000000E+02 1.224800000000E-02 2.812500000000E-06 2.020000000000E+02
S28 2025 01 01 14 31 28 1.136213541031E-07-3.456079866737E-11 3.114640000000E+05
     5.084271840000E+03 2.311875000000E-03 1.375000000000E-07 6.300000000000E+01
     4.187308736000E+04 6.475000000000E-04-1.000000000000E-07 3.276700000000E+04
     2.320480000000E+01-1.720000000000E-04-1.250000000000E-07 2.020000000000E+02
S23 2025 01 01 14 31 12 0.000000000000E+00 0.000000000000E+00 3.114730000000E+05
     3.866796400000E+04 0.000000000000E+00 0.000000000000E+00 6.300000000000E+01
     1.681330800000E+04 0.000000000000E+00 0.000000000000E+00 3.276700000000E+04
     0.000000000000E+00 0.000000000000E+00 0.000000000000E+00 1.460000000000E+02
E27 2025 01 01 14 20 00-5.449273739941E-04-9.919176591211E-12 0.000000000000E+00
     1.000000000000E+01-1.615625000000E+01 3.528361256123E-09 5.106197132464E-01
    -6.482005119324E-07 3.207088448107E-04 6.368383765221E-06 5.440602401733E+03
     3.108000000000E+05 6.332993507385E-08 2.413556040583E+00 4.284083843231E-08
     9.642060100906E-01 2.039375000000E+02 5.530927206347E-01-5.548445400736E-09
    -6.118111986779E-10 2.580000000000E+02 2.347000000000E+03
     3.120000000000E+00 0.000000000000E+00-4.656612873077E-10 0.000000000000E+00
     3.115400000000E+05
E29 2025 01 01 14 20 00-5.848548607901E-05-3.183231456205E-12 0.000000000000E+00
     1.000000000000E+01-1.826250000000E+02 2.820117469212E-09-2.884962388321E-01
    -8.318573236465E-06 3.140298649669E-04 1.212395727634E-05 5.440617538452E+03
     3.108000000000E+05 0.000000000000E+00 3.156896023105E-01 2.793967723846E-08
     9.569350175788E-01 7.781250000000E+01 2.648020138931E+00-5.280577100089E-09
     3.432285825624E-10 2.580000000000E+02 2.347000000000E+03
     3.120000000000E+00 0.000000000000E+00-5.355104804039E-09 0.000000000000E+00
     3.115400000000E+05
